{"fetched_at":"2026-03-29T02:12:04Z","count":15717,"tles":[{"name":"GPS BIIF-9  (PRN 26)","line1":"1 40534U 15013A   26086.29205244 -.00000029  00000+0  00000+0 0  9996","line2":"2 40534  53.1810 207.5638 0108792  39.9071 320.8617  2.00556171 80184","category":"GPS"}]}